OBJECT_NAME,OBJECT_ID,EPOCH,MEAN_MOTION,ECCENTRICITY,INCLINATION,RA_OF_ASC_NODE,ARG_OF_PERICENTER,MEAN_ANOMALY,EPHEMERIS_TYPE,CLASSIFICATION_TYPE,NORAD_CAT_ID,ELEMENT_SET_NO,REV_AT_EPOCH,BSTAR,MEAN_MOTION_DOT,MEAN_MOTION_DDOT
ONEWEB-0221,2021-045Y,2026-07-13T04:18:31.054176,13.15548668,.00021915,87.8999,254.0133,103.6882,256.4493,0,U,48789,999,24779,.21836396E-3,.95E-6,0
ONEWEB-0213,2021-045Z,2026-07-13T04:02:32.650080,13.15548592,.00020486,87.8995,254.0192,108.1820,251.9534,0,U,48790,999,24785,.30117555E-3,.126E-5,0
ONEWEB-0212,2021-045AA,2026-07-13T03:29:26.408256,13.15547516,.00021198,87.8989,254.0187,101.1922,258.9447,0,U,48791,999,24784,.26707011E-3,.113E-5,0
ONEWEB-0227,2021-045AB,2026-07-12T16:31:10.873920,13.15547682,.00021147,87.8991,254.1094,101.5691,258.5677,0,U,48792,999,24773,.13450945E-3,.63E-6,0
ONEWEB-0226,2021-045AC,2026-07-12T16:22:02.974368,13.15547764,.0001956,87.8985,254.1160,107.4745,252.6599,0,U,48793,999,24770,.39817112E-3,.163E-5,0
ONEWEB-0224,2021-045AD,2026-07-13T04:16:14.256192,13.15548630,.00029429,87.8989,254.0485,99.4261,260.7202,0,U,48794,999,24769,-.42286052E-4,-.3E-7,0
ONEWEB-0233,2021-045AE,2026-07-13T04:22:52.520448,13.15550671,.00022277,87.8985,254.0549,105.2914,254.8462,0,U,48795,999,24771,-.11493965E-3,-.3E-6,0
ONEWEB-0190,2021-045AF,2026-07-12T17:07:41.284128,13.15548656,.00021745,87.8992,254.1124,117.2161,242.9191,0,U,48796,999,24772,.13811769E-3,.65E-6,0
ONEWEB-0236,2021-045AG,2026-07-12T15:43:16.114368,13.15548119,.00021566,87.8984,254.1319,95.2359,264.9017,0,U,48797,999,24760,-.2810328E-3,-.93E-6,0
ONEWEB-0248,2021-045AH,2026-07-12T16:01:30.820512,13.15548836,.00024045,87.8996,254.1153,108.5777,251.5614,0,U,48798,999,24776,-.15477156E-3,-.45E-6,0
ONEWEB-0225,2021-045AJ,2026-07-13T03:30:36.216864,13.15548124,.00021937,87.8992,254.0270,113.2136,246.9226,0,U,48799,999,24783,.36726732E-3,.151E-5,0
ONEWEB-0215,2021-045AK,2026-07-12T15:50:06.189504,13.15549106,.00023979,87.9000,254.1074,111.9675,248.1710,0,U,48800,999,24764,-.31681021E-3,-.106E-5,0
ONEWEB-0216,2021-045AL,2026-07-12T16:03:48.119616,13.15547853,.00019535,87.8984,254.1212,98.0014,262.1338,0,U,48801,999,24765,-.1363235E-3,-.38E-6,0
ONEWEB-0239,2021-045AM,2026-07-12T16:10:38.950752,13.15548366,.00025205,87.8979,254.1228,114.2785,245.8609,0,U,48802,999,24769,-.21314403E-3,-.67E-6,0
FENGYUN 4B,2021-047A,2026-07-13T07:07:01.208928,1.00263746,.0005778,0.2151,79.7291,272.9281,149.8180,0,U,48808,999,1883,0,-.331E-5,0
SXM-8,2021-049A,2026-07-13T03:24:05.762304,1.00271054,.00054346,0.0171,42.0890,348.2910,226.5183,0,U,48838,999,1884,0,-.207E-5,0
2021-050D,2021-050D,2026-07-13T06:43:22.939104,15.23584693,.00061729,97.3337,269.7239,158.5622,201.5875,0,U,48843,999,28293,.17580113E-3,.4138E-4,0
NAVSTAR 81 (USA 319),2021-054A,2026-07-12T22:23:31.401312,2.00567088,.00264065,55.1610,331.4250,228.5393,130.0348,0,U,48859,999,3726,0,-.91E-6,0
YAOGAN-30 10A,2021-055A,2026-07-12T21:56:51.388224,15.02793080,.00046041,34.9964,355.4200,295.1769,64.8462,0,U,48860,999,27705,.11504279E-3,.1542E-4,0
YAOGAN-30 10B,2021-055B,2026-07-12T21:26:29.316768,15.02781949,.00049758,34.9961,355.1861,301.3985,58.6236,0,U,48861,999,27704,.10739292E-3,.1437E-4,0
YAOGAN-30 10C,2021-055D,2026-07-12T22:12:52.603776,15.02790709,.00031483,34.9966,354.6490,14.3561,345.7237,0,U,48863,999,27676,.10936664E-3,.1464E-4,0
TIANQI-14,2021-055E,2026-07-13T07:23:23.147520,15.13914360,.00050242,34.9992,276.5121,196.7337,163.3210,0,U,48864,999,27768,.16721151E-3,.3065E-4,0
COSMOS 2550,2021-056A,2026-07-13T07:16:20.362944,15.33813733,.00084867,67.1435,20.9070,270.6818,89.3364,0,U,48865,999,28272,.23090766E-4,.568E-5,0
STARLINK-3005,2021-059C,2026-07-13T07:43:33.728160,15.01284867,.0004483,97.4560,318.5081,177.9941,182.1303,0,U,48881,999,27765,-.267072E-3,-.3488E-4,0
TYVAK-0173,2021-059P,2026-07-12T18:55:47.623296,14.81967390,.00074017,96.0075,263.7816,309.8537,50.2030,0,U,48892,999,27203,.11439944E-3,.875E-5,0
MANDRAKE 2 ABLE,2021-059AE,2026-07-12T23:17:16.836000,15.56011596,.00036822,97.7023,25.7406,243.6609,116.4267,0,U,48907,999,28113,.23319883E-3,.16128E-3,0
MANDRAKE 2 BAKER,2021-059AF,2026-07-12T12:04:58.964736,15.60865564,.00024618,97.6985,28.2904,231.4381,128.6655,0,U,48908,999,28124,.2464395E-3,.20477E-3,0
PACE-1,2021-059AG,2026-07-12T12:21:45.186048,15.84812920,.00034269,97.6724,34.6073,186.8561,173.2662,0,U,48909,999,28180,.37891783E-3,.88201E-3,0
YAM-3,2021-059AN,2026-07-13T07:08:19.373280,15.49119558,.00038449,97.6990,22.9701,251.9526,108.1306,0,U,48915,999,28103,.14038193E-3,.7526E-4,0
FARADAY_PHOENIX,2021-059AX,2026-07-12T12:20:03.495840,15.86233591,.00058935,97.6770,34.5090,204.9834,155.1151,0,U,48924,999,28166,.58597851E-3,.147195E-2,0
